IRIDIUM 166             
1 43570U 18061B   24185.98169650 -.00000203  00000+0 -79468-4 0  9993
2 43570  86.3975 354.7901 0002242  94.8420 265.3031 14.34217717311175
IRIDIUM 158             
1 43571U 18061C   24186.01974777  .00000254  00000+0  83639-4 0  9992
2 43571  86.3978 354.7833 0002248  88.8014 271.3439 14.34217549311151
IRIDIUM 165             
1 43572U 18061D   24185.90558492  .00000012  00000+0 -28191-5 0  9998
2 43572  86.3976 354.8640 0002184  88.6264 271.5182 14.34217060311156
IRIDIUM 155             
1 43573U 18061E   24186.00706159  .00000437  00000+0  14913-3 0  9991
2 43573  86.3976 354.7252 0002390  94.8750 265.2719 14.34213385311144
IRIDIUM 154             
1 43574U 18061F   24186.54618658  .00000038  00000+0  64391-5 0  9991
2 43574  86.3980 354.5987 0001876  90.5156 269.6255 14.34215657311264
IRIDIUM 163             
1 43575U 18061G   24186.17831526 -.00000098  00000+0 -42040-4 0  9996
2 43575  86.3973 354.6905 0001925  91.6956 268.4460 14.34219095311189
IRIDIUM 156             
1 43576U 18061H   24185.94364087  .00000033  00000+0  46989-5 0  9998
2 43576  86.3975 354.7947 0002325  88.8630 271.2832 14.34216887311148
IRIDIUM 164             
1 43577U 18061J   24186.55252877  .00000352  00000+0  11875-3 0  9998
2 43577  86.3980 354.5696 0002101  82.6854 277.4581 14.34217168311272
